#aV2014 11  3  0  0  0.00000000     288 DD+AD WGS84 FIT  NGA
## 1817  86400.00000000   300.00000000 56964 0.0000000000000
+   31     1  2  4  5  6  7  8  9 10 11 12 13 14 15 16 17 18
+         19 20 21 22 23 24 25 26 27 28 29 30 31 32  0  0  0
+          0  0  0  0  0  0  0  0  0  0  0  0  0  0  0  0  0
+          0  0  0  0  0  0  0  0  0  0  0  0  0  0  0  0  0
+          0  0  0  0  0  0  0  0  0  0  0  0  0  0  0  0  0
++         2  2  2  2  2  2  2  2  2  2  2  2  2  2  2  2  2
++         2  2  2  2  2  2  2  2  2  2  2  2  2  2  0  0  0
++         0  0  0  0  0  0  0  0  0  0  0  0  0  0  0  0  0
++         0  0  0  0  0  0  0  0  0  0  0  0  0  0  0  0  0
++         0  0  0  0  0  0  0  0  0  0  0  0  0  0  0  0  0
%c cc cc ccc ccc cccc cccc cccc cccc ccccc ccccc ccccc ccccc
%c cc cc ccc ccc cccc cccc cccc cccc ccccc ccccc ccccc ccccc
%f  0.0000000  0.000000000  0.00000000000  0.000000000000000
%f  0.0000000  0.000000000  0.00000000000  0.000000000000000
%i    0    0    0    0      0      0      0      0         0
%i    0    0    0    0      0      0      0      0         0
/*      NGA, ST. LOUIS,MO.                                  
/*   EPHEMERIS COMPUTED FROM  1 DAYS OF DATA                
/*   EPOCHA SMOOTHER                                       
/* CCCCCCCCCCCCCCCCCCCCCCCCCCCCCCCCCCCCCCCCCCCCCCCCCCCCCCCCC
*  2014 11  3 17 25  0.00000000
P  1  20017.215800  13486.512662 -11312.873344    -12.519509                    
V  1 -14340.516543  -1448.531787 -27068.043833      0.004176                    
P  2   3631.559014 -15400.696017  21646.371384    527.971503                    
V  2  26093.069138   6250.110274   -411.920768      0.022128                    
P  4  15013.943014  15632.395153 -15813.269700     -2.471114                    
V  4 -19430.612465  -2568.806978 -21187.114620     -0.005194                    
P  5   -795.873393 -25070.329319   8413.170706   -322.194059                    
V  5   5967.957782   9556.598342  29052.036077      0.043295                    
P  6  17701.633087  -8386.443045  17913.662322      5.908273                    
V  6  21672.612272   7217.294672 -18036.459259      0.043451                    
P  7  25823.475247   6975.075498   -561.972972    408.999089                    
V  7    195.274611   2307.787195  31752.368549      0.038506                    
P  8  17626.510872  15928.287939  12685.842784     16.170302                    
V  8 -14739.176881  -4917.401943  26475.424915      0.001815                    
P  9  18764.849328   -346.316410  18801.548015      0.537072                    
V  9 -15652.304407  18077.928375  15942.351885     -0.064889                    
P 10  11403.660929 -12943.273749  19718.015469   -148.308423                    
V 10   8165.693960  24762.409795  11747.456964     -0.015714                    
P 11  14477.196318  13635.515990 -18196.508465   -533.632425                    
V 11 -22073.755077   3950.349082 -14870.413703     -0.028458                    
P 12  -9954.355132 -23833.762494   6576.702789    243.573487                    
V 12   -255.529039  -8542.706346 -30781.501462      0.027921                    
P 13  22547.120354 -12348.714496   6964.484392    -57.156313                    
V 13  -5629.414459   7287.291597  30320.863896     -0.035298                    
P 14 -21667.908401  14241.619353  -5151.972489    119.188629                    
V 14   3416.166474  -6515.317876 -31119.210195     -0.036262                    
P 15  -6092.422177 -15782.035080 -20477.676857   -212.446780                    
V 15  18329.450806 -18505.026810   9147.988340     -0.022151                    
P 16   -467.718814  24925.692865   8559.432584   -183.447140                    
V 16  -4286.877594 -10357.692068  30078.941034      0.027830                    
P 17  21425.130635 -13981.530075  -6402.997439   -135.136206                    
V 17  -4431.106847   7753.096854 -30699.792484     -0.025458                    
P 18 -16721.832373  -3968.411169 -19856.494579    355.795865                    
V 18  -6234.814204 -25587.271638   9814.783262      0.026376                    
P 19   -273.178042  17917.364319 -19620.460296   -486.482274                    
V 19 -19748.716907  14863.790094  14406.035173     -0.017155                    
P 20  15231.634848  18773.763495  10880.186856    252.537809                    
V 20   1534.415495  14463.362578 -26547.809339      0.042521                    
P 21 -26035.616582  -2565.608283  -5065.439392   -392.900797                    
V 21  -6189.100076  -4978.215792  29968.131134     -0.020487                    
P 22 -12720.996657  11100.075464 -20258.109458    283.354404                    
V 22  -8502.811963 -25009.250310  -8442.492416      0.038126                    
P 23  12224.251407   9657.499251  21658.248649    -64.636778                    
V 23 -19213.784456  19273.205619   1841.796995     -0.027946                    
P 24 -17298.910394 -14512.011628 -14093.921490    -37.868529                    
V 24  17846.770880   2117.890061 -23998.668552     -0.006062                    
P 25 -15510.833042 -13550.633012  16770.866229     15.847498                    
V 25  -4359.973742 -20948.555873 -20726.635260     -0.015878                    
P 26   7717.202545 -20337.503639 -15703.693540   -110.566123                    
V 26  15566.209133 -10761.039073  22812.798407     -0.129417                    
P 27  -9559.572257  21659.033097 -11981.799567     27.149659                    
V 27 -12271.407084   9276.269252  26660.002886      0.028526                    
P 28  13454.220279  -5372.329007 -21641.130823    395.823880                    
V 28   6109.201134  28257.494659  -3247.736346      0.025788                    
P 29 -17630.039139  -2180.952595  19759.463213    570.864841                    
V 29  17710.177124 -17700.350303  13901.196093      0.025211                    
P 30  23966.695265   -330.952171 -11493.642714    -77.739034                    
V 30  13004.987811   7046.252674  26859.533564     -0.027749                    
P 31 -16132.916834   8919.945009  19392.208338    329.613853                    
V 31 -22917.382328  -7659.654414 -15354.299299     -0.005682                    
P 32   4813.192013  26426.970317   -240.693578   -302.467289                    
V 32  -2770.707308    195.888447 -31103.957016      0.089308                    
EOF
